[
    {
        "Altitude(m)": 611967.183671951,
        "Argument of Periapsis(deg)": 0.0,
        "Eccentricity": 0.0,
        "Inclination(deg)": 60.0,
        "Latitude(deg)": 59.140175943773116,
        "Longitude(deg)": 176.09224151645373,
        "Mean Anomaly(deg)": 98.18179999999998,
        "RAAN(deg)": 170.00000000000003,
        "Satellite Name": "Test1 754",
        "Satellite Number": 754,
        "Semi-Major Axis(m)": 6980739.136638005,
        "Time(s)": 0
    },
    {
        "Altitude(m)": 611934.3828327678,
        "Argument of Periapsis(deg)": 0.00010418945913296404,
        "Eccentricity": 0.0,
        "Inclination(deg)": 60.0,
        "Latitude(deg)": 58.986535965644535,
        "Longitude(deg)": 177.2154865654864,
        "Mean Anomaly(deg)": 98.80190614546184,
        "RAAN(deg)": 169.99957995086027,
        "Satellite Name": "Test1 754",
        "Satellite Number": 754,
        "Semi-Major Axis(m)": 6980739.136638005,
        "Time(s)": 10
    },
    {
        "Altitude(m)": 611899.2773566062,
        "Argument of Periapsis(deg)": 0.0002083789182659281,
        "Eccentricity": 0.0,
        "Inclination(deg)": 60.0,
        "Latitude(deg)": 58.82251789322334,
        "Longitude(deg)": 178.3280661489499,
        "Mean Anomaly(deg)": 99.42201229092367,
        "RAAN(deg)": 169.99915990172053,
        "Satellite Name": "Test1 754",
        "Satellite Number": 754,
        "Semi-Major Axis(m)": 6980739.136638005,
        "Time(s)": 20
    },
    {
        "Altitude(m)": 611861.8874781418,
        "Argument of Periapsis(deg)": 0.00031256837739889213,
        "Eccentricity": 0.0,
        "Inclination(deg)": 60.0,
        "Latitude(deg)": 58.64828477788182,
        "Longitude(deg)": 179.42946847769846,
        "Mean Anomaly(deg)": 100.04211843638548,
        "RAAN(deg)": 169.99873985258077,
        "Satellite Name": "Test1 754",
        "Satellite Number": 754,
        "Semi-Major Axis(m)": 6980739.136638005,
        "Time(s)": 30
    },
    {
        "Altitude(m)": 611822.2347578884,
        "Argument of Periapsis(deg)": 0.0004167578365318562,
        "Eccentricity": 0.0,
        "Inclination(deg)": 60.0,
        "Latitude(deg)": 58.46400611985306,
        "Longitude(deg)": -179.48077748834353,
        "Mean Anomaly(deg)": 100.6622245818473,
        "RAAN(deg)": 169.99831980344106,
        "Satellite Name": "Test1 754",
        "Satellite Number": 754,
        "Semi-Major Axis(m)": 6980739.136638005,
        "Time(s)": 40
    },
    {
        "Altitude(m)": 611780.3420719753,
        "Argument of Periapsis(deg)": 0.0005209472956648203,
        "Eccentricity": 0.0,
        "Inclination(deg)": 60.0,
        "Latitude(deg)": 58.269857151709225,
        "Longitude(deg)": -178.40310281655354,
        "Mean Anomaly(deg)": 101.28233072730914,
        "RAAN(deg)": 169.99789975430127,
        "Satellite Name": "Test1 754",
        "Satellite Number": 754,
        "Semi-Major Axis(m)": 6980739.136638005,
        "Time(s)": 50
    },
    {
        "Altitude(m)": 611736.2336013515,
        "Argument of Periapsis(deg)": 0.0006251367547977843,
        "Eccentricity": 0.0,
        "Inclination(deg)": 60.0,
        "Latitude(deg)": 58.06601812829563,
        "Longitude(deg)": -177.33789815510795,
        "Mean Anomaly(deg)": 101.90243687277098,
        "RAAN(deg)": 169.99747970516154,
        "Satellite Name": "Test1 754",
        "Satellite Number": 754,
        "Semi-Major Axis(m)": 6980739.136638005,
        "Time(s)": 60
    },
    {
        "Altitude(m)": 611689.9348203295,
        "Argument of Periapsis(deg)": 0.0007293262139307483,
        "Eccentricity": 0.0,
        "Inclination(deg)": 60.0,
        "Latitude(deg)": 57.852673628505656,
        "Longitude(deg)": -176.28551355624688,
        "Mean Anomaly(deg)": 102.52254301823278,
        "RAAN(deg)": 169.9970596560218,
        "Satellite Name": "Test1 754",
        "Satellite Number": 754,
        "Semi-Major Axis(m)": 6980739.136638005,
        "Time(s)": 70
    },
    {
        "Altitude(m)": 611641.4724845219,
        "Argument of Periapsis(deg)": 0.0008335156730637124,
        "Eccentricity": 0.0,
        "Inclination(deg)": 60.0,
        "Latitude(deg)": 57.63001187374127,
        "Longitude(deg)": -175.24626005979346,
        "Mean Anomaly(deg)": 103.1426491636946,
        "RAAN(deg)": 169.99663960688207,
        "Satellite Name": "Test1 754",
        "Satellite Number": 754,
        "Semi-Major Axis(m)": 6980739.136638005,
        "Time(s)": 80
    },
    {
        "Altitude(m)": 611590.8746181793,
        "Argument of Periapsis(deg)": 0.0009377051321966765,
        "Eccentricity": 0.0,
        "Inclination(deg)": 60.0,
        "Latitude(deg)": 57.39822406732449,
        "Longitude(deg)": -174.2204099872515,
        "Mean Anomaly(deg)": 103.76275530915647,
        "RAAN(deg)": 169.9962195577423,
        "Satellite Name": "Test1 754",
        "Satellite Number": 754,
        "Semi-Major Axis(m)": 6980739.136638005,
        "Time(s)": 90
    },
    {
        "Altitude(m)": 611538.1705008908,
        "Argument of Periapsis(deg)": 0.0010418945913296407,
        "Eccentricity": 0.0,
        "Inclination(deg)": 60.0,
        "Latitude(deg)": 57.15750375854918,
        "Longitude(deg)": -173.20819743446503,
        "Mean Anomaly(deg)": 104.3828614546183,
        "RAAN(deg)": 169.99579950860257,
        "Satellite Name": "Test1 754",
        "Satellite Number": 754,
        "Semi-Major Axis(m)": 6980739.136638005,
        "Time(s)": 100
    },
    {
        "Altitude(m)": 611483.3906536966,
        "Argument of Periapsis(deg)": 0.0011460840504626045,
        "Eccentricity": 0.0,
        "Inclination(deg)": 60.0,
        "Latitude(deg)": 56.90804623447565,
        "Longitude(deg)": -172.20982045041117,
        "Mean Anomaly(deg)": 105.00296760008014,
        "RAAN(deg)": 169.99537945946284,
        "Satellite Name": "Test1 754",
        "Satellite Number": 754,
        "Semi-Major Axis(m)": 6980739.136638005,
        "Time(s)": 110
    },
    {
        "Altitude(m)": 611426.5668246294,
        "Argument of Periapsis(deg)": 0.0012502735095955685,
        "Eccentricity": 0.0,
        "Inclination(deg)": 60.0,
        "Latitude(deg)": 56.65004794198658,
        "Longitude(deg)": -171.22544185114378,
        "Mean Anomaly(deg)": 105.62307374554199,
        "RAAN(deg)": 169.9949594103231,
        "Satellite Name": "Test1 754",
        "Satellite Number": 754,
        "Semi-Major Axis(m)": 6980739.136638005,
        "Time(s)": 120
    },
    {
        "Altitude(m)": 611367.7319736108,
        "Argument of Periapsis(deg)": 0.0013544629687285324,
        "Eccentricity": 0.0,
        "Inclination(deg)": 60.0,
        "Latitude(deg)": 56.38370594207585,
        "Longitude(deg)": -170.25519015703148,
        "Mean Anomaly(deg)": 106.24317989100376,
        "RAAN(deg)": 169.99453936118334,
        "Satellite Name": "Test1 754",
        "Satellite Number": 754,
        "Semi-Major Axis(m)": 6980739.136638005,
        "Time(s)": 130
    },
    {
        "Altitude(m)": 611306.9202567933,
        "Argument of Periapsis(deg)": 0.0014586524278614966,
        "Eccentricity": 0.0,
        "Inclination(deg)": 60.0,
        "Latitude(deg)": 56.1092173978152,
        "Longitude(deg)": -169.29916214229877,
        "Mean Anomaly(deg)": 106.8632860364656,
        "RAAN(deg)": 169.9941193120436,
        "Satellite Name": "Test1 754",
        "Satellite Number": 754,
        "Semi-Major Axis(m)": 6980739.136638005,
        "Time(s)": 140
    },
    {
        "Altitude(m)": 611244.1670103384,
        "Argument of Periapsis(deg)": 0.0015628418869944607,
        "Eccentricity": 0.0,
        "Inclination(deg)": 60.0,
        "Latitude(deg)": 55.82677909694405,
        "Longitude(deg)": -168.3574239484318,
        "Mean Anomaly(deg)": 107.48339218192746,
        "RAAN(deg)": 169.99369926290387,
        "Satellite Name": "Test1 754",
        "Satellite Number": 754,
        "Semi-Major Axis(m)": 6980739.136638005,
        "Time(s)": 150
    },
    {
        "Altitude(m)": 611179.5087335879,
        "Argument of Periapsis(deg)": 0.0016670313461274247,
        "Eccentricity": 0.0,
        "Inclination(deg)": 60.0,
        "Latitude(deg)": 55.53658700958617,
        "Longitude(deg)": -167.43001225303524,
        "Mean Anomaly(deg)": 108.10349832738929,
        "RAAN(deg)": 169.99327921376414,
        "Satellite Name": "Test1 754",
        "Satellite Number": 754,
        "Semi-Major Axis(m)": 6980739.136638005,
        "Time(s)": 160
    },
    {
        "Altitude(m)": 611112.9830716812,
        "Argument of Periapsis(deg)": 0.0017712208052603888,
        "Eccentricity": 0.0,
        "Inclination(deg)": 60.0,
        "Latitude(deg)": 55.238835881188585,
        "Longitude(deg)": -166.51693698731506,
        "Mean Anomaly(deg)": 108.7236044728511,
        "RAAN(deg)": 169.99285916462438,
        "Satellite Name": "Test1 754",
        "Satellite Number": 754,
        "Semi-Major Axis(m)": 6980739.136638005,
        "Time(s)": 170
    },
    {
        "Altitude(m)": 611044.6287976205,
        "Argument of Periapsis(deg)": 0.001875410264393353,
        "Eccentricity": 0.0,
        "Inclination(deg)": 60.0,
        "Latitude(deg)": 54.93371886040878,
        "Longitude(deg)": -165.61818255844855,
        "Mean Anomaly(deg)": 109.34371061831291,
        "RAAN(deg)": 169.99243911548464,
        "Satellite Name": "Test1 754",
        "Satellite Number": 754,
        "Semi-Major Axis(m)": 6980739.136638005,
        "Time(s)": 180
    },
    {
        "Altitude(m)": 610974.485793784,
        "Argument of Periapsis(deg)": 0.0019795997235263173,
        "Eccentricity": 0.0,
        "Inclination(deg)": 60.0,
        "Latitude(deg)": 54.621427161368345,
        "Longitude(deg)": -164.73370907350085,
        "Mean Anomaly(deg)": 109.96381676377476,
        "RAAN(deg)": 169.9920190663449,
        "Satellite Name": "Test1 754",
        "Satellite Number": 754,
        "Semi-Major Axis(m)": 6980739.136638005,
        "Time(s)": 190
    }
]